{
  "type": "FeatureCollection",
  "name": "KMC_City_Boundary",
  "crs": {
    "type": "name",
    "properties": {
      "name": "urn:ogc:def:crs:OGC:1.3:CRS84"
    }
  },
  "features": [
    {
      "type": "Feature",
      "properties": {
        "name": "Kolhapur Municipal Corporation",
        "authority": "Kolhapur Municipal Corporation (KMC)",
        "state": "Maharashtra",
        "district": "Kolhapur",
        "adminLevel": 8,
        "boundaryType": "Municipal Corporation Boundary"
      },
      "geometry": {
        "type": "Polygon",
        "coordinates": [
          [
            [74.1950, 16.7150],
            [74.2050, 16.7320],
            [74.2250, 16.7380],
            [74.2480, 16.7350],
            [74.2680, 16.7280],
            [74.2820, 16.7180],
            [74.2850, 16.6980],
            [74.2790, 16.6780],
            [74.2650, 16.6600],
            [74.2450, 16.6540],
            [74.2200, 16.6550],
            [74.2020, 16.6650],
            [74.1920, 16.6850],
            [74.1950, 16.7150]
          ]
        ]
      }
    }
  ]
}
